IRIDIUM 921             
1 24873U 97034E   24121.03495108  .00022884  00000+0  65029-3 0  9995
2 24873  86.3796 311.9079 0005527  83.5194 276.6687 15.36032953468067
IRIDIUM 26              
1 24903U 97043A   24120.91209522  .00000819  00000+0  27366-3 0  9994
2 24903  86.3911 284.0207 0002205  86.5595 273.5854 14.36315318397400
IRIDIUM 22              
1 24907U 97043E   24121.20931973  .00000759  00000+0  25881-3 0  9996
2 24907  86.3913 287.0973 0002121  92.5761 267.5678 14.35206193397516
DUMMY MASS 1            
1 24925U 97048A   24121.52347805  .00000664  00000+0  72492-4 0  9997
2 24925  86.3328 326.0277 0007658 151.1488 209.0161 14.86164566444069
DUMMY MASS 2            
1 24926U 97048B   24121.55235616  .00000652  00000+0  71586-4 0  9997
2 24926  86.3330 327.5491 0007984 162.6307 197.5192 14.85923308443853
IRIDIUM 29              
1 24944U 97051A   24121.57566818  .00000626  00000+0  21027-3 0  9999
2 24944  86.3927 316.8804 0002215  95.5339 264.6110 14.35659058394275
IRIDIUM 33              
1 24946U 97051C   24121.06961344  .00000438  00000+0  14907-3 0  9998
2 24946  86.3841 316.3474 0007730   2.6607 357.4628 14.34329165393528
IRIDIUM 28              
1 24948U 97051E   24121.54145134  .00000661  00000+0  21836-3 0  9991
2 24948  86.3927 314.6456 0002189  78.3477 281.7965 14.36608939394653
